IRIDIUM 57              
1 25273U 98019B   24298.39485790  .00001113  00000+0  38030-3 0  9998
2 25273  86.3957 243.9640 0002373  86.0883 274.0584 14.35505698390957
IRIDIUM 63              
1 25286U 98021B   24298.43651294  .00000986  00000+0  33205-3 0  9990
2 25286  86.4045 180.9350 0002055  77.2331 282.9095 14.36116738390000
IRIDIUM 69              
1 25319U 98026A   24298.47041609  .00001638  00000+0  50960-3 0  9991
2 25319  86.4044 194.8976 0004593  80.2718 279.9000 14.40429205389120
IRIDIUM 71              
1 25320U 98026B   24298.44337678  .00001063  00000+0  32685-3 0  9990
2 25320  86.4044 189.6509 0003725 112.9286 247.2307 14.40692951389640
IRIDIUM 73              
1 25344U 98032C   24298.55662009  .00001491  00000+0  37195-3 0  9990
2 25344  86.4424 146.8566 0002763  81.5776 278.5742 14.51029254396686
IRIDIUM 82              
1 25467U 98051A   24298.29357457  .00028593  00000+0  12164-2 0  9996
2 25467  86.3751 224.2183 0117809 102.8913 258.5519 15.16677421388013
